start=new Date('2022-10-16T00:00:00.000Z').valueOf();
sats=[{"SEMIMAJOR_AXIS":"6917.906","EPHEMERIS_TYPE":"0","MEAN_ANOMALY":"183.5702","RA_OF_ASC_NODE":"274.1758","FILE":"3615679","PERIOD":"95.438","CLASSIFICATION_TYPE":"U","ECCENTRICITY":"0.00018840","APOAPSIS":"541.075","EPOCH":"2022-10-15T22:00:01.999584","SITE":"AFETR","ARG_OF_PERICENTER":"39.0556","MEAN_MOTION_DOT":"-0.00008420","INCLINATION":"53.2164","MEAN_ELEMENT_THEORY":"SGP4","GP_ID":"215250072","MEAN_MOTION":"15.08831468","BSTAR":"-0.00051165000000","MEAN_MOTION_DDOT":"0.0000000000000","NORAD_CAT_ID":"52987","OBJECT_ID":"2022-076B","ELEMENT_SET_NO":"999","TLE_LINE2":"2 52987  53.2164 274.1758 0001884  39.0556 183.5702 15.08831468  1301","REF_FRAME":"TEME","DECAY_DATE":null,"REV_AT_EPOCH":"130","TLE_LINE1":"1 52987U 22076B   22288.91668981 -.00008420  00000-0 -51165-3 0  9995","OBJECT_NAME":"STARLINK-4259","TIME_SYSTEM":"UTC","PERIAPSIS":"538.468","COUNTRY_CODE":"US","OBJECT_TYPE":"PAYLOAD","LAUNCH_DATE":"2022-07-07","RCS_SIZE":"LARGE","CENTER_NAME":"EARTH"},{"APOAPSIS":"541.102","CLASSIFICATION_TYPE":"U","PERIOD":"95.439","ECCENTRICITY":"0.00018940","EPHEMERIS_TYPE":"0","SEMIMAJOR_AXIS":"6917.927","FILE":"3615679","RA_OF_ASC_NODE":"264.1756","MEAN_ANOMALY":"56.4550","SITE":"AFETR","MEAN_MOTION_DOT":"0.00027041","ARG_OF_PERICENTER":"41.1640","EPOCH":"2022-10-15T22:00:01.999584","NORAD_CAT_ID":"52988","MEAN_MOTION_DDOT":"0.0000000000000","BSTAR":"0.00171130000000","ELEMENT_SET_NO":"999","OBJECT_ID":"2022-076C","MEAN_ELEMENT_THEORY":"SGP4","INCLINATION":"53.2171","MEAN_MOTION":"15.08824791","GP_ID":"215250156","LAUNCH_DATE":"2022-07-07","OBJECT_TYPE":"PAYLOAD","CENTER_NAME":"EARTH","RCS_SIZE":"LARGE","OBJECT_NAME":"STARLINK-4291","TLE_LINE1":"1 52988U 22076C   22288.91668981  .00027041  00000-0  17113-2 0  9998","REV_AT_EPOCH":"130","DECAY_DATE":null,"REF_FRAME":"TEME","TLE_LINE2":"2 52988  53.2171 264.1756 0001894  41.1640  56.4550 15.08824791  1306","COUNTRY_CODE":"US","PERIAPSIS":"538.482","TIME_SYSTEM":"UTC"},{"INCLINATION":"53.2173","MEAN_ELEMENT_THEORY":"SGP4","MEAN_MOTION":"15.08814805","GP_ID":"215250907","NORAD_CAT_ID":"52989","BSTAR":"0.00134650000000","MEAN_MOTION_DDOT":"0.0000000000000","OBJECT_ID":"2022-076D","ELEMENT_SET_NO":"999","REV_AT_EPOCH":"130","DECAY_DATE":null,"TLE_LINE2":"2 52989  53.2173 274.1742 0002095  34.4249 208.1738 15.08814805  1308","REF_FRAME":"TEME","OBJECT_NAME":"STARLINK-4293","TLE_LINE1":"1 52989U 22076D   22288.91668981  .00021192  00000-0  13465-2 0  9996","TIME_SYSTEM":"UTC","PERIAPSIS":"538.373","COUNTRY_CODE":"US","OBJECT_TYPE":"PAYLOAD","LAUNCH_DATE":"2022-07-07","RCS_SIZE":"LARGE","CENTER_NAME":"EARTH","EPHEMERIS_TYPE":"0","SEMIMAJOR_AXIS":"6917.957","RA_OF_ASC_NODE":"274.1742","MEAN_ANOMALY":"208.1738","FILE":"3615679","PERIOD":"95.439","CLASSIFICATION_TYPE":"U","ECCENTRICITY":"0.00020950","APOAPSIS":"541.272","EPOCH":"2022-10-15T22:00:01.999584","SITE":"AFETR","MEAN_MOTION_DOT":"0.00021192","ARG_OF_PERICENTER":"34.4249"},{"EPOCH":"2022-10-15T22:00:01.999584","SITE":"AFETR","MEAN_MOTION_DOT":"0.00006504","ARG_OF_PERICENTER":"42.5051","EPHEMERIS_TYPE":"0","SEMIMAJOR_AXIS":"6917.861","RA_OF_ASC_NODE":"274.1699","MEAN_ANOMALY":"220.0869","FILE":"3615679","CLASSIFICATION_TYPE":"U","PERIOD":"95.437","ECCENTRICITY":"0.00020410","APOAPSIS":"541.138","REV_AT_EPOCH":"130","DECAY_DATE":null,"TLE_LINE2":"2 52990  53.2165 274.1699 0002041  42.5051 220.0869 15.08846218  1305","REF_FRAME":"TEME","OBJECT_NAME":"STARLINK-4286","TLE_LINE1":"1 52990U 22076E   22288.91668981  .00006504  00000-0  42627-3 0  9991","TIME_SYSTEM":"UTC","PERIAPSIS":"538.314","COUNTRY_CODE":"US","OBJECT_TYPE":"PAYLOAD","LAUNCH_DATE":"2022-07-07","RCS_SIZE":"LARGE","CENTER_NAME":"EARTH","INCLINATION":"53.2165","MEAN_ELEMENT_THEORY":"SGP4","MEAN_MOTION":"15.08846218","GP_ID":"215249905","NORAD_CAT_ID":"52990","MEAN_MOTION_DDOT":"0.0000000000000","BSTAR":"0.00042627000000","OBJECT_ID":"2022-076E","ELEMENT_SET_NO":"999"},{"RCS_SIZE":"LARGE","CENTER_NAME":"EARTH","OBJECT_TYPE":"PAYLOAD","LAUNCH_DATE":"2022-07-07","TIME_SYSTEM":"UTC","PERIAPSIS":"538.486","COUNTRY_CODE":"US","DECAY_DATE":null,"REV_AT_EPOCH":"130","REF_FRAME":"TEME","TLE_LINE2":"2 52991  53.2175 274.1700 0001878  43.7907 238.8379 15.08827038  1302","OBJECT_NAME":"STARLINK-4285","TLE_LINE1":"1 52991U 22076F   22288.91668981 -.00004877  00000-0 -28860-3 0  9998","OBJECT_ID":"2022-076F","ELEMENT_SET_NO":"999","NORAD_CAT_ID":"52991","MEAN_MOTION_DDOT":"0.0000000000000","BSTAR":"-0.00028860000000","MEAN_MOTION":"15.08827038","GP_ID":"215250490","INCLINATION":"53.2175","MEAN_ELEMENT_THEORY":"SGP4","MEAN_MOTION_DOT":"-0.00004877","ARG_OF_PERICENTER":"43.7907","SITE":"AFETR","EPOCH":"2022-10-15T22:00:01.999584","PERIOD":"95.438","ECCENTRICITY":"0.00018780","CLASSIFICATION_TYPE":"U","APOAPSIS":"541.084","RA_OF_ASC_NODE":"274.1700","MEAN_ANOMALY":"238.8379","FILE":"3615679","EPHEMERIS_TYPE":"0","SEMIMAJOR_AXIS":"6917.920"},{"EPOCH":"2022-10-15T22:00:01.999584","SITE":"AFETR","MEAN_MOTION_DOT":"-0.00014674","ARG_OF_PERICENTER":"35.0328","EPHEMERIS_TYPE":"0","SEMIMAJOR_AXIS":"6917.905","FILE":"3615679","RA_OF_ASC_NODE":"274.1719","MEAN_ANOMALY":"267.6078","APOAPSIS":"541.179","CLASSIFICATION_TYPE":"U","PERIOD":"95.438","ECCENTRICITY":"0.00020370","OBJECT_NAME":"STARLINK-4269","TLE_LINE1":"1 52992U 22076G   22288.91668981 -.00014674  00000-0 -90592-3 0  9996","DECAY_DATE":null,"REV_AT_EPOCH":"130","TLE_LINE2":"2 52992  53.2187 274.1719 0002037  35.0328 267.6078 15.08831958  1307","REF_FRAME":"TEME","COUNTRY_CODE":"US","TIME_SYSTEM":"UTC","PERIAPSIS":"538.361","LAUNCH_DATE":"2022-07-07","OBJECT_TYPE":"PAYLOAD","CENTER_NAME":"EARTH","RCS_SIZE":"LARGE","MEAN_ELEMENT_THEORY":"SGP4","INCLINATION":"53.2187","MEAN_MOTION":"15.08831958","GP_ID":"215249738","NORAD_CAT_ID":"52992","MEAN_MOTION_DDOT":"0.0000000000000","BSTAR":"-0.00090592000000","ELEMENT_SET_NO":"999","OBJECT_ID":"2022-076G"},{"APOAPSIS":"541.131","PERIOD":"95.438","CLASSIFICATION_TYPE":"U","ECCENTRICITY":"0.00019950","FILE":"3615679","MEAN_ANOMALY":"80.8991","RA_OF_ASC_NODE":"264.1745","SEMIMAJOR_AXIS":"6917.886","EPHEMERIS_TYPE":"0","ARG_OF_PERICENTER":"36.7556","MEAN_MOTION_DOT":"-0.00033325","SITE":"AFETR","EPOCH":"2022-10-15T22:00:01.999584","ELEMENT_SET_NO":"999","OBJECT_ID":"2022-076H","MEAN_MOTION_DDOT":"0.0000000000000","BSTAR":"-0.00208550000000","NORAD_CAT_ID":"52993","GP_ID":"215250657","MEAN_MOTION":"15.08838230","MEAN_ELEMENT_THEORY":"SGP4","INCLINATION":"53.2176","RCS_SIZE":"LARGE","CENTER_NAME":"EARTH","LAUNCH_DATE":"2022-07-07","OBJECT_TYPE":"PAYLOAD","COUNTRY_CODE":"US","PERIAPSIS":"538.371","TIME_SYSTEM":"UTC","TLE_LINE1":"1 52993U 22076H   22288.91668981 -.00033325  00000-0 -20855-2 0  9995","OBJECT_NAME":"STARLINK-4264","REF_FRAME":"TEME","TLE_LINE2":"2 52993  53.2176 264.1745 0001995  36.7556  80.8991 15.08838230  1306","REV_AT_EPOCH":"130","DECAY_DATE":null},{"EPOCH":"2022-10-15T22:00:01.999584","ARG_OF_PERICENTER":"37.5874","MEAN_MOTION_DOT":"0.00040850","SITE":"AFETR","FILE":"3615679","MEAN_ANOMALY":"100.0303","RA_OF_ASC_NODE":"264.1729","SEMIMAJOR_AXIS":"6917.955","EPHEMERIS_TYPE":"0","APOAPSIS":"541.377","PERIOD":"95.439","CLASSIFICATION_TYPE":"U","ECCENTRICITY":"0.00022510","COUNTRY_CODE":"US","PERIAPSIS":"538.262","TIME_SYSTEM":"UTC","TLE_LINE1":"1 52994U 22076J   22288.91668981  .00040850  00000-0  25716-2 0  9996","OBJECT_NAME":"STARLINK-4256","REF_FRAME":"TEME","TLE_LINE2":"2 52994  53.2168 264.1729 0002251  37.5874 100.0303 15.08815702  1309","REV_AT_EPOCH":"130","DECAY_DATE":null,"CENTER_NAME":"EARTH","RCS_SIZE":"LARGE","LAUNCH_DATE":"2022-07-07","OBJECT_TYPE":"PAYLOAD","GP_ID":"215250323","MEAN_MOTION":"15.08815702","MEAN_ELEMENT_THEORY":"SGP4","INCLINATION":"53.2168","ELEMENT_SET_NO":"999","OBJECT_ID":"2022-076J","BSTAR":"0.00257160000000","MEAN_MOTION_DDOT":"0.0000000000000","NORAD_CAT_ID":"52994"},{"EPOCH":"2022-10-15T22:00:01.999584","ARG_OF_PERICENTER":"26.9364","MEAN_MOTION_DOT":"-0.00365499","SITE":"AFETR","FILE":"3615679","MEAN_ANOMALY":"150.7280","RA_OF_ASC_NODE":"264.1629","SEMIMAJOR_AXIS":"6917.467","EPHEMERIS_TYPE":"0","APOAPSIS":"540.955","PERIOD":"95.429","CLASSIFICATION_TYPE":"U","ECCENTRICITY":"0.00023450","COUNTRY_CODE":"US","PERIAPSIS":"537.710","TIME_SYSTEM":"UTC","TLE_LINE1":"1 52995U 22076K   22288.91668981 -.00365499  00000-0 -24053-1 0  9990","OBJECT_NAME":"STARLINK-4296","REF_FRAME":"TEME","TLE_LINE2":"2 52995  53.2166 264.1629 0002345  26.9364 150.7280 15.08975108  1300","REV_AT_EPOCH":"130","DECAY_DATE":null,"RCS_SIZE":"LARGE","CENTER_NAME":"EARTH","LAUNCH_DATE":"2022-07-07","OBJECT_TYPE":"PAYLOAD","GP_ID":"215250073","MEAN_MOTION":"15.08975108","MEAN_ELEMENT_THEORY":"SGP4","INCLINATION":"53.2166","ELEMENT_SET_NO":"999","OBJECT_ID":"2022-076K","MEAN_MOTION_DDOT":"0.0000000000000","BSTAR":"-0.02405300000000","NORAD_CAT_ID":"52995"},{"MEAN_ELEMENT_THEORY":"SGP4","INCLINATION":"53.2170","GP_ID":"215250157","MEAN_MOTION":"15.08817323","BSTAR":"0.00253410000000","MEAN_MOTION_DDOT":"0.0000000000000","NORAD_CAT_ID":"52996","ELEMENT_SET_NO":"999","OBJECT_ID":"2022-076L","OBJECT_NAME":"STARLINK-4295","TLE_LINE1":"1 52996U 22076L   22288.91668981  .00040248  00000-0  25341-2 0  9993","TLE_LINE2":"2 52996  53.2170 264.1713 0001942  37.5859 120.0070 15.08817323  1300","REF_FRAME":"TEME","REV_AT_EPOCH":"130","DECAY_DATE":null,"COUNTRY_CODE":"US","PERIAPSIS":"538.471","TIME_SYSTEM":"UTC","LAUNCH_DATE":"2022-07-07","OBJECT_TYPE":"PAYLOAD","RCS_SIZE":"LARGE","CENTER_NAME":"EARTH","SEMIMAJOR_AXIS":"6917.950","EPHEMERIS_TYPE":"0","FILE":"3615679","MEAN_ANOMALY":"120.0070","RA_OF_ASC_NODE":"264.1713","APOAPSIS":"541.158","PERIOD":"95.439","CLASSIFICATION_TYPE":"U","ECCENTRICITY":"0.00019420","EPOCH":"2022-10-15T22:00:01.999584","SITE":"AFETR","ARG_OF_PERICENTER":"37.5859","MEAN_MOTION_DOT":"0.00040248"}];
